OBJECT_NAME,OBJECT_ID,EPOCH,MEAN_MOTION,ECCENTRICITY,INCLINATION,RA_OF_ASC_NODE,ARG_OF_PERICENTER,MEAN_ANOMALY,EPHEMERIS_TYPE,CLASSIFICATION_TYPE,NORAD_CAT_ID,ELEMENT_SET_NO,REV_AT_EPOCH,BSTAR,MEAN_MOTION_DOT,MEAN_MOTION_DDOT
STARLINK-35873,2026-034L,2026-05-19T23:04:03.318528,15.30208412,.00010441,53.1555,233.4812,72.2973,287.8142,0,U,67860,999,1497,.33331687E-3,.9528E-4,0
STARLINK-36325,2026-034M,2026-05-19T22:59:30.056064,15.30198647,.00014395,53.1557,233.4651,90.7824,269.3341,0,U,67861,999,1494,.38404238E-3,.11031E-3,0
STARLINK-36332,2026-034N,2026-05-19T22:54:56.371104,15.30208076,.00012263,53.1549,233.4427,83.7394,276.3746,0,U,67862,999,1494,.27171572E-3,.7699E-4,0
STARLINK-36835,2026-034P,2026-05-19T22:50:22.822656,15.30206717,.0001044,53.1549,233.4227,94.9145,265.1975,0,U,67863,999,1494,.54238E-3,.15742E-3,0
STARLINK-36831,2026-034Q,2026-05-19T14:55:33.443904,15.30206994,.00011876,53.1574,234.9193,80.9795,279.1340,0,U,67864,999,1489,.14503264E-3,.394E-4,0
STARLINK-36738,2026-034R,2026-05-19T13:12:22.958208,15.30202029,.00010646,53.1584,235.1825,85.7258,274.3864,0,U,67865,999,1488,.48286392E-4,.1071E-4,0
STARLINK-36780,2026-034S,2026-05-20T06:22:24.487680,15.30208123,.00009961,53.1572,231.8222,90.8101,269.3014,0,U,67866,999,1499,.51514308E-3,.14932E-3,0
STARLINK-36761,2026-034T,2026-05-20T06:17:50.891712,15.30212657,.00013409,53.1584,231.8015,102.9935,257.1216,0,U,67867,999,1499,.69190333E-3,.20197E-3,0
STARLINK-36762,2026-034U,2026-05-20T06:11:46.227552,15.30213331,.0001323,53.1578,231.7763,90.9006,269.2146,0,U,67868,999,1499,.66793924E-3,.19483E-3,0
STARLINK-36779,2026-034V,2026-05-20T06:00:02.000160,15.34380032,.00008381,53.1593,230.2235,86.1288,317.4500,0,U,67869,999,587,.79823783E-3,.26672E-3,0
STARLINK-36770,2026-034W,2026-05-19T23:44:55.356576,15.30217802,.00013331,53.1584,232.9438,89.3484,270.7670,0,U,67870,999,1495,.3650655E-3,.10474E-3,0
STARLINK-36769,2026-034X,2026-05-19T23:41:52.950624,15.30210209,.00010858,53.1594,232.9291,72.6968,287.4152,0,U,67871,999,1495,.66657967E-3,.19441E-3,0
STARLINK-36786,2026-034Y,2026-05-19T23:32:46.013568,15.30213282,.00012996,53.1583,232.8897,82.7833,277.3315,0,U,67872,999,1495,.42363202E-3,.12213E-3,0
STARLINK-36783,2026-034Z,2026-05-19T23:30:29.574144,15.34406645,.00014827,53.1584,231.4658,75.9625,284.1542,0,U,67873,999,1497,.83249802E-3,.27862E-3,0
STARLINK-36730,2026-034AA,2026-05-19T23:24:25.831872,15.34401069,.00011155,53.1589,231.4367,76.1810,283.9317,0,U,67874,999,1497,.54288243E-3,.18011E-3,0
STARLINK-36727,2026-034AB,2026-05-19T22:55:14.441664,15.31714544,.00012435,53.1561,232.7241,83.3257,276.7886,0,U,67875,999,1495,.3180456E-3,.9521E-4,0
STARLINK-36743,2026-034AC,2026-05-19T22:57:58.679424,15.30203311,.00011314,53.1561,233.4521,85.4445,274.6685,0,U,67876,999,1494,.27021733E-3,.7653E-4,0
STARLINK-36784,2026-034AD,2026-05-19T15:25:09.890112,15.29393655,.00011529,53.1592,235.0643,83.4424,276.6708,0,U,67877,999,1489,.59817982E-3,.16964E-3,0
STARLINK-36689,2026-034AE,2026-05-19T14:54:01.935936,15.30208572,.00006988,53.1564,234.9026,19.8252,340.2776,0,U,67878,999,1489,-.17574917E-3,-.5561E-4,0
STARLINK-36818,2026-035A,2026-05-20T06:29:36.154176,15.33456515,.00011177,97.2910,73.7950,95.3039,264.8331,0,U,67879,999,1495,.49351111E-3,.15897E-3,0
STARLINK-36821,2026-035B,2026-05-20T06:25:41.577312,15.33455362,.00021126,97.2855,73.8006,88.6990,271.4494,0,U,67880,999,1495,.36393358E-3,.11697E-3,0
STARLINK-36808,2026-035C,2026-05-20T06:57:00.563040,15.33462647,.00013092,97.2873,73.9269,98.0560,262.0831,0,U,67881,999,1496,.66504244E-3,.21468E-3,0
STARLINK-36817,2026-035D,2026-05-20T07:24:25.026336,15.33455098,.00014728,97.2864,73.8993,116.0925,244.0470,0,U,67882,999,1496,.43417104E-3,.13972E-3,0
STARLINK-36856,2026-035E,2026-05-20T05:54:21.879648,15.33458053,.00013035,97.2852,73.8321,115.7557,244.3820,0,U,67883,999,1495,.66103019E-3,.21335E-3,0
STARLINK-36842,2026-035F,2026-05-20T06:21:46.244448,15.33462675,.00010013,97.2860,73.8049,95.5918,264.5439,0,U,67884,999,1495,.40384452E-3,.12992E-3,0
STARLINK-36826,2026-035G,2026-05-20T06:06:06.734304,15.33458794,.00014928,97.2873,73.8184,91.9247,268.2167,0,U,67885,999,1495,.39323426E-3,.12647E-3,0
STARLINK-36390,2026-035H,2026-05-20T06:17:51.413568,15.33458551,.00010864,97.2837,73.8063,98.0575,262.0791,0,U,67886,999,1495,.57042446E-3,.18393E-3,0
STARLINK-36368,2026-035J,2026-05-20T07:08:46.273056,15.33458675,.00036024,97.2870,73.9143,77.7466,282.4180,0,U,67887,999,1496,.60875691E-3,.19641E-3,0
STARLINK-36801,2026-035K,2026-05-20T07:12:40.236480,15.33457196,.0001489,97.2867,73.9113,112.4691,247.6710,0,U,67888,999,1496,.44893246E-3,.14452E-3,0
STARLINK-36372,2026-035L,2026-05-20T07:20:29.842080,15.33457685,.00018045,97.2869,73.9034,144.2746,215.8618,0,U,67889,999,1496,.50579181E-3,.16296E-3,0
