STARLINK-35873          
1 67860U 26034L   26139.96114952  .00009528  00000+0  33332-3 0  9990
2 67860  53.1555 233.4812 0001044  72.2973 287.8142 15.30208412 14974
STARLINK-36325          
1 67861U 26034M   26139.95798676  .00011031  00000+0  38404-3 0  9998
2 67861  53.1557 233.4651 0001439  90.7824 269.3341 15.30198647 14947
STARLINK-36332          
1 67862U 26034N   26139.95481911  .00007699  00000+0  27172-3 0  9995
2 67862  53.1549 233.4427 0001226  83.7394 276.3746 15.30208076 14943
STARLINK-36835          
1 67863U 26034P   26139.95165304  .00015742  00000+0  54238-3 0  9992
2 67863  53.1549 233.4227 0001044  94.9145 265.1975 15.30206717 14948
STARLINK-36831          
1 67864U 26034Q   26139.62191486  .00003940  00000+0  14503-3 0  9995
2 67864  53.1574 234.9193 0001187  80.9795 279.1340 15.30206994 14891
STARLINK-36738          
1 67865U 26034R   26139.55026572  .00001071  00000+0  48286-4 0  9990
2 67865  53.1584 235.1825 0001064  85.7258 274.3864 15.30202029 14881
STARLINK-36780          
1 67866U 26034S   26140.26556120  .00014932  00000+0  51514-3 0  9995
2 67866  53.1572 231.8222 0000996  90.8101 269.3014 15.30208123 14994
STARLINK-36761          
1 67867U 26034T   26140.26239458  .00020197  00000+0  69190-3 0  9997
2 67867  53.1584 231.8015 0001340 102.9935 257.1216 15.30212657 14998
STARLINK-36762          
1 67868U 26034U   26140.25817393  .00019483  00000+0  66794-3 0  9990
2 67868  53.1578 231.7763 0001323  90.9006 269.2146 15.30213331 14993
STARLINK-36779          
1 67869U 26034V   26140.25002315  .00026672  00000+0  79824-3 0  9997
2 67869  53.1593 230.2235 0000838  86.1288 317.4500 15.34380032  5872
STARLINK-36770          
1 67870U 26034W   26139.98952959  .00010474  00000+0  36507-3 0  9999
2 67870  53.1584 232.9438 0001333  89.3484 270.7670 15.30217802 14950
STARLINK-36769          
1 67871U 26034X   26139.98741841  .00019441  00000+0  66658-3 0  9999
2 67871  53.1594 232.9291 0001085  72.6968 287.4152 15.30210209 14959
STARLINK-36786          
1 67872U 26034Y   26139.98108812  .00012213  00000+0  42363-3 0  9992
2 67872  53.1583 232.8897 0001299  82.7833 277.3315 15.30213282 14952
STARLINK-36783          
1 67873U 26034Z   26139.97950896  .00027862  00000+0  83250-3 0  9995
2 67873  53.1584 231.4658 0001482  75.9625 284.1542 15.34406645 14972
STARLINK-36730          
1 67874U 26034AA  26139.97529898  .00018011  00000+0  54288-3 0  9995
2 67874  53.1589 231.4367 0001115  76.1810 283.9317 15.34401069 14979
STARLINK-36727          
1 67875U 26034AB  26139.95502826  .00009521  00000+0  31805-3 0  9992
2 67875  53.1561 232.7241 0001243  83.3257 276.7886 15.31714544 14953
STARLINK-36743          
1 67876U 26034AC  26139.95692916  .00007653  00000+0  27022-3 0  9993
2 67876  53.1561 233.4521 0001131  85.4445 274.6685 15.30203311 14948
STARLINK-36784          
1 67877U 26034AD  26139.64247558  .00016964  00000+0  59818-3 0  9991
2 67877  53.1592 235.0643 0001152  83.4424 276.6708 15.29393655 14895
STARLINK-36689          
1 67878U 26034AE  26139.62085574 -.00005561  00000+0 -17575-3 0  9995
2 67878  53.1564 234.9026 0000698  19.8252 340.2776 15.30208572 14892
STARLINK-36818          
1 67879U 26035A   26140.27055734  .00015897  00000+0  49351-3 0  9993
2 67879  97.2910  73.7950 0001117  95.3039 264.8331 15.33456515 14951
STARLINK-36821          
1 67880U 26035B   26140.26784233  .00011697  00000+0  36393-3 0  9993
2 67880  97.2855  73.8006 0002112  88.6990 271.4494 15.33455362 14954
STARLINK-36808          
1 67881U 26035C   26140.28958985  .00021468  00000+0  66504-3 0  9997
2 67881  97.2873  73.9269 0001309  98.0560 262.0831 15.33462647 14968
STARLINK-36817          
1 67882U 26035D   26140.30862299  .00013972  00000+0  43417-3 0  9992
2 67882  97.2864  73.8993 0001472 116.0925 244.0470 15.33455098 14960
STARLINK-36856          
1 67883U 26035E   26140.24608657  .00021335  00000+0  66103-3 0  9991
2 67883  97.2852  73.8321 0001303 115.7557 244.3820 15.33458053 14958
STARLINK-36842          
1 67884U 26035F   26140.26511857  .00012992  00000+0  40384-3 0  9991
2 67884  97.2860  73.8049 0001001  95.5918 264.5439 15.33462675 14951
STARLINK-36826          
1 67885U 26035G   26140.25424461  .00012647  00000+0  39323-3 0  9993
2 67885  97.2873  73.8184 0001492  91.9247 268.2167 15.33458794 14951
STARLINK-36390          
1 67886U 26035H   26140.26240062  .00018393  00000+0  57042-3 0  9990
2 67886  97.2837  73.8063 0001086  98.0575 262.0791 15.33458551 14955
STARLINK-36368          
1 67887U 26035J   26140.29775779  .00019641  00000+0  60876-3 0  9998
2 67887  97.2870  73.9143 0003602  77.7466 282.4180 15.33458675 14968
STARLINK-36801          
1 67888U 26035K   26140.30046570  .00014452  00000+0  44893-3 0  9997
2 67888  97.2867  73.9113 0001489 112.4691 247.6710 15.33457196 14969
STARLINK-36372          
1 67889U 26035L   26140.30590095  .00016296  00000+0  50579-3 0  9990
2 67889  97.2869  73.9034 0001804 144.2746 215.8618 15.33457685 14966
